start=new Date('2023-04-24T00:00:00.000Z').valueOf();
sats=[{"MEAN_MOTION":"15.18193456","PERIOD":"94.850","PERIAPSIS":"508.233","SITE":"AFETR","TLE_LINE1":"1 50833U 22001AG  23113.76165283  .00078734  00000-0  37778-2 0  9995","INCLINATION":"53.2145","MEAN_ANOMALY":"29.0037","FILE":"3892831","EPHEMERIS_TYPE":"0","OBJECT_NAME":"STARLINK-3316","MEAN_MOTION_DDOT":"0.0000000000000","RA_OF_ASC_NODE":"204.1378","SEMIMAJOR_AXIS":"6889.437","DECAY_DATE":null,"OBJECT_ID":"2022-001AG","APOAPSIS":"514.372","OBJECT_TYPE":"PAYLOAD","BSTAR":"0.00377780000000","NORAD_CAT_ID":"50833","CENTER_NAME":"EARTH","ECCENTRICITY":"0.00044550","ARG_OF_PERICENTER":"331.0711","MEAN_MOTION_DOT":"0.00078734","CLASSIFICATION_TYPE":"U","GP_ID":"230660843","RCS_SIZE":"LARGE","COUNTRY_CODE":"US","LAUNCH_DATE":"2022-01-06","REF_FRAME":"TEME","TLE_LINE2":"2 50833  53.2145 204.1378 0004455 331.0711  29.0037 15.18193456 71798","EPOCH":"2023-04-23T18:16:46.804512","ELEMENT_SET_NO":"999","REV_AT_EPOCH":"7179","TIME_SYSTEM":"UTC","MEAN_ELEMENT_THEORY":"SGP4"},{"REV_AT_EPOCH":"7161","TIME_SYSTEM":"UTC","MEAN_ELEMENT_THEORY":"SGP4","LAUNCH_DATE":"2022-01-06","COUNTRY_CODE":"US","RCS_SIZE":"LARGE","TLE_LINE2":"2 50834  53.2137 216.7318 0001462 111.5385 248.5763 15.08851419 71610","EPOCH":"2023-04-23T19:16:24.770208","ELEMENT_SET_NO":"999","REF_FRAME":"TEME","APOAPSIS":"540.722","OBJECT_TYPE":"PAYLOAD","OBJECT_ID":"2022-001AH","DECAY_DATE":null,"SEMIMAJOR_AXIS":"6917.845","RA_OF_ASC_NODE":"216.7318","CLASSIFICATION_TYPE":"U","GP_ID":"230661094","ARG_OF_PERICENTER":"111.5385","MEAN_MOTION_DOT":"0.00007664","NORAD_CAT_ID":"50834","CENTER_NAME":"EARTH","ECCENTRICITY":"0.00014620","BSTAR":"0.00049894000000","PERIOD":"95.437","MEAN_MOTION":"15.08851419","MEAN_MOTION_DDOT":"0.0000000000000","EPHEMERIS_TYPE":"0","FILE":"3892831","OBJECT_NAME":"STARLINK-3331","TLE_LINE1":"1 50834U 22001AH  23113.80306447  .00007664  00000-0  49894-3 0  9997","INCLINATION":"53.2137","SITE":"AFETR","MEAN_ANOMALY":"248.5763","PERIAPSIS":"538.699"},{"MEAN_ELEMENT_THEORY":"SGP4","TIME_SYSTEM":"UTC","REV_AT_EPOCH":"7161","TLE_LINE2":"2 50835  53.2145 216.7704 0002141  85.3378 274.7858 15.08848168 71617","EPOCH":"2023-04-23T19:07:12.766656","ELEMENT_SET_NO":"999","REF_FRAME":"TEME","LAUNCH_DATE":"2022-01-06","COUNTRY_CODE":"US","RCS_SIZE":"LARGE","CLASSIFICATION_TYPE":"U","GP_ID":"230661340","ARG_OF_PERICENTER":"85.3378","MEAN_MOTION_DOT":"0.00019045","NORAD_CAT_ID":"50835","ECCENTRICITY":"0.00021410","CENTER_NAME":"EARTH","BSTAR":"0.00121120000000","OBJECT_TYPE":"PAYLOAD","APOAPSIS":"541.202","OBJECT_ID":"2022-001AJ","DECAY_DATE":null,"SEMIMAJOR_AXIS":"6917.855","RA_OF_ASC_NODE":"216.7704","MEAN_MOTION_DDOT":"0.0000000000000","FILE":"3892831","EPHEMERIS_TYPE":"0","OBJECT_NAME":"STARLINK-3310","TLE_LINE1":"1 50835U 22001AJ  23113.79667554  .00019045  00000-0  12112-2 0  9993","SITE":"AFETR","INCLINATION":"53.2145","MEAN_ANOMALY":"274.7858","PERIAPSIS":"538.239","PERIOD":"95.437","MEAN_MOTION":"15.08848168"},{"DECAY_DATE":null,"OBJECT_ID":"2022-001AK","OBJECT_TYPE":"PAYLOAD","APOAPSIS":"540.887","RA_OF_ASC_NODE":"217.3065","SEMIMAJOR_AXIS":"6917.906","ARG_OF_PERICENTER":"87.7755","MEAN_MOTION_DOT":"0.00000991","CLASSIFICATION_TYPE":"U","GP_ID":"230660594","BSTAR":"0.00008039800000","NORAD_CAT_ID":"50836","ECCENTRICITY":"0.00016130","CENTER_NAME":"EARTH","MEAN_MOTION":"15.08831601","PERIOD":"95.438","FILE":"3892831","EPHEMERIS_TYPE":"0","OBJECT_NAME":"STARLINK-3330","MEAN_MOTION_DDOT":"0.0000000000000","PERIAPSIS":"538.655","TLE_LINE1":"1 50836U 22001AK  23113.67427906  .00000991  00000-0  80398-4 0  9999","SITE":"AFETR","INCLINATION":"53.2155","MEAN_ANOMALY":"272.3422","REV_AT_EPOCH":"7149","TIME_SYSTEM":"UTC","MEAN_ELEMENT_THEORY":"SGP4","LAUNCH_DATE":"2022-01-06","COUNTRY_CODE":"US","RCS_SIZE":"LARGE","TLE_LINE2":"2 50836  53.2155 217.3065 0001613  87.7755 272.3422 15.08831601 71495","EPOCH":"2023-04-23T16:10:57.710784","ELEMENT_SET_NO":"999","REF_FRAME":"TEME"},{"SEMIMAJOR_AXIS":"6917.874","RA_OF_ASC_NODE":"208.3785","OBJECT_TYPE":"PAYLOAD","APOAPSIS":"540.842","OBJECT_ID":"2022-001AL","DECAY_DATE":null,"NORAD_CAT_ID":"50837","ECCENTRICITY":"0.00015940","CENTER_NAME":"EARTH","BSTAR":"0.00008046100000","CLASSIFICATION_TYPE":"U","GP_ID":"230660344","ARG_OF_PERICENTER":"103.2123","MEAN_MOTION_DOT":"0.00000993","PERIOD":"95.437","MEAN_MOTION":"15.08842057","INCLINATION":"53.2165","TLE_LINE1":"1 50837U 22001AL  23113.43598807  .00000993  00000-0  80461-4 0  9996","SITE":"AFETR","MEAN_ANOMALY":"256.9047","PERIAPSIS":"538.636","MEAN_MOTION_DDOT":"0.0000000000000","FILE":"3892831","EPHEMERIS_TYPE":"0","OBJECT_NAME":"STARLINK-3318","TIME_SYSTEM":"UTC","REV_AT_EPOCH":"7170","MEAN_ELEMENT_THEORY":"SGP4","RCS_SIZE":"LARGE","LAUNCH_DATE":"2022-01-06","COUNTRY_CODE":"US","REF_FRAME":"TEME","TLE_LINE2":"2 50837  53.2165 208.3785 0001594 103.2123 256.9047 15.08842057 71709","EPOCH":"2023-04-23T10:27:49.369248","ELEMENT_SET_NO":"999"},{"PERIAPSIS":"516.338","TLE_LINE1":"1 50838U 22001AM  23113.68620036  .00016124  00000-0  83764-3 0  9995","SITE":"AFETR","INCLINATION":"53.2171","MEAN_ANOMALY":"269.1347","OBJECT_NAME":"STARLINK-3322","FILE":"3892831","EPHEMERIS_TYPE":"0","MEAN_MOTION_DDOT":"0.0000000000000","MEAN_MOTION":"15.16252690","PERIOD":"94.971","BSTAR":"0.00083764000000","NORAD_CAT_ID":"50838","CENTER_NAME":"EARTH","ECCENTRICITY":"0.00012210","ARG_OF_PERICENTER":"90.9788","MEAN_MOTION_DOT":"0.00016124","CLASSIFICATION_TYPE":"U","GP_ID":"230661595","RA_OF_ASC_NODE":"213.5712","SEMIMAJOR_AXIS":"6895.315","OBJECT_ID":"2022-001AM","DECAY_DATE":null,"OBJECT_TYPE":"PAYLOAD","APOAPSIS":"518.022","REF_FRAME":"TEME","EPOCH":"2023-04-23T16:28:07.711104","TLE_LINE2":"2 50838  53.2171 213.5712 0001221  90.9788 269.1347 15.16252690 71651","ELEMENT_SET_NO":"999","RCS_SIZE":"LARGE","LAUNCH_DATE":"2022-01-06","COUNTRY_CODE":"US","MEAN_ELEMENT_THEORY":"SGP4","TIME_SYSTEM":"UTC","REV_AT_EPOCH":"7165"},{"PERIAPSIS":"538.956","MEAN_ANOMALY":"266.1162","SITE":"AFETR","TLE_LINE1":"1 50839U 22001AN  23113.65219718  .00001024  00000-0  82437-4 0  9994","INCLINATION":"53.2158","OBJECT_NAME":"STARLINK-3320","FILE":"3892831","EPHEMERIS_TYPE":"0","MEAN_MOTION_DDOT":"0.0000000000000","MEAN_MOTION":"15.08834917","PERIOD":"95.438","BSTAR":"0.00008243700000","CENTER_NAME":"EARTH","ECCENTRICITY":"0.00011630","NORAD_CAT_ID":"50839","ARG_OF_PERICENTER":"93.9963","MEAN_MOTION_DOT":"0.00001024","GP_ID":"230661841","CLASSIFICATION_TYPE":"U","RA_OF_ASC_NODE":"217.4057","SEMIMAJOR_AXIS":"6917.896","OBJECT_ID":"2022-001AN","DECAY_DATE":null,"OBJECT_TYPE":"PAYLOAD","APOAPSIS":"540.565","REF_FRAME":"TEME","ELEMENT_SET_NO":"999","EPOCH":"2023-04-23T15:39:09.836352","TLE_LINE2":"2 50839  53.2158 217.4057 0001163  93.9963 266.1162 15.08834917 71588","RCS_SIZE":"LARGE","COUNTRY_CODE":"US","LAUNCH_DATE":"2022-01-06","MEAN_ELEMENT_THEORY":"SGP4","REV_AT_EPOCH":"7158","TIME_SYSTEM":"UTC"},{"LAUNCH_DATE":"2022-01-06","COUNTRY_CODE":"US","RCS_SIZE":"LARGE","ELEMENT_SET_NO":"999","TLE_LINE2":"2 50840  53.2150 216.8330 0001111  80.4852 279.6266 15.08863209 71603","EPOCH":"2023-04-23T18:44:37.719168","REF_FRAME":"TEME","TIME_SYSTEM":"UTC","REV_AT_EPOCH":"7160","MEAN_ELEMENT_THEORY":"SGP4","PERIOD":"95.436","MEAN_MOTION":"15.08863209","MEAN_MOTION_DDOT":"0.0000000000000","OBJECT_NAME":"STARLINK-3295","FILE":"3892831","EPHEMERIS_TYPE":"0","MEAN_ANOMALY":"279.6266","TLE_LINE1":"1 50840U 22001AP  23113.78099212  .00043402  00000-0  27267-2 0  9999","SITE":"AFETR","INCLINATION":"53.2150","PERIAPSIS":"538.906","OBJECT_TYPE":"PAYLOAD","APOAPSIS":"540.443","DECAY_DATE":null,"OBJECT_ID":"2022-001AP","SEMIMAJOR_AXIS":"6917.809","RA_OF_ASC_NODE":"216.8330","GP_ID":"230660094","CLASSIFICATION_TYPE":"U","ARG_OF_PERICENTER":"80.4852","MEAN_MOTION_DOT":"0.00043402","ECCENTRICITY":"0.00011110","CENTER_NAME":"EARTH","NORAD_CAT_ID":"50840","BSTAR":"0.00272670000000"},{"REF_FRAME":"TEME","ELEMENT_SET_NO":"999","TLE_LINE2":"2 50841  53.2147 217.0765 0001274  81.1535 278.9601 15.08840228 71602","EPOCH":"2023-04-23T17:25:08.495328","RCS_SIZE":"LARGE","LAUNCH_DATE":"2022-01-06","COUNTRY_CODE":"US","MEAN_ELEMENT_THEORY":"SGP4","TIME_SYSTEM":"UTC","REV_AT_EPOCH":"7160","PERIAPSIS":"538.863","MEAN_ANOMALY":"278.9601","TLE_LINE1":"1 50841U 22001AQ  23113.72579277  .00033408  00000-0  21072-2 0  9991","SITE":"AFETR","INCLINATION":"53.2147","FILE":"3892831","OBJECT_NAME":"STARLINK-3300","EPHEMERIS_TYPE":"0","MEAN_MOTION_DDOT":"0.0000000000000","MEAN_MOTION":"15.08840228","PERIOD":"95.438","BSTAR":"0.00210720000000","ECCENTRICITY":"0.00012740","CENTER_NAME":"EARTH","NORAD_CAT_ID":"50841","ARG_OF_PERICENTER":"81.1535","MEAN_MOTION_DOT":"0.00033408","GP_ID":"230660844","CLASSIFICATION_TYPE":"U","RA_OF_ASC_NODE":"217.0765","SEMIMAJOR_AXIS":"6917.880","OBJECT_ID":"2022-001AQ","DECAY_DATE":null,"OBJECT_TYPE":"PAYLOAD","APOAPSIS":"540.626"},{"RCS_SIZE":"LARGE","COUNTRY_CODE":"US","LAUNCH_DATE":"2022-01-06","REF_FRAME":"TEME","TLE_LINE2":"2 50842  53.2158 218.3350 0001316 112.6200 247.4931 15.08836472 71552","EPOCH":"2023-04-23T10:42:24.036192","ELEMENT_SET_NO":"999","REV_AT_EPOCH":"7155","TIME_SYSTEM":"UTC","MEAN_ELEMENT_THEORY":"SGP4","MEAN_MOTION":"15.08836472","PERIOD":"95.438","PERIAPSIS":"538.846","SITE":"AFETR","TLE_LINE1":"1 50842U 22001AR  23113.44611153  .00001899  00000-0  13737-3 0  9990","INCLINATION":"53.2158","MEAN_ANOMALY":"247.4931","FILE":"3892831","OBJECT_NAME":"STARLINK-3302","EPHEMERIS_TYPE":"0","MEAN_MOTION_DDOT":"0.0000000000000","RA_OF_ASC_NODE":"218.3350","SEMIMAJOR_AXIS":"6917.891","OBJECT_ID":"2022-001AR","DECAY_DATE":null,"APOAPSIS":"540.667","OBJECT_TYPE":"PAYLOAD","BSTAR":"0.00013737000000","NORAD_CAT_ID":"50842","ECCENTRICITY":"0.00013160","CENTER_NAME":"EARTH","ARG_OF_PERICENTER":"112.6200","MEAN_MOTION_DOT":"0.00001899","CLASSIFICATION_TYPE":"U","GP_ID":"230661095"}];
